STARLINK-3723           
1 52138U 22029BC  26068.26297391  .00001721  00000+0  12626-3 0  9995
2 52138  53.2178  71.0337 0001296  88.1691 271.9450 15.08827538220873
LEMUR-2-AHMED-ASRAR     
1 60576U 24149DN  26068.73265438  .00013045  00000+0  79773-3 0  9992
2 60576  97.7021 152.9847 0001633  18.5035 341.6253 15.10376432 85541
